name,source,collection_date,satellite_number,classification,launch_year,launch_number,launch_piece,epoch_year,epoch_day,inclination_deg,right_ascension_deg,eccentricity,argument_of_perigee_deg,mean_anomaly_deg,mean_motion,orbital_period_minutes,approximate_altitude_km,mean_motion_derivative,mean_motion_second_derivative,drag_term,element_set_number,revolution_number,line1,line2,category
STARLINK-34027,celestrak_active,2025-07-29T17:08:40.721538,63936,U,2025,98,L,2025,210.4894023,70.0005,117.0417,0.0003053,269.1007,90.9803,14.9833852,96.10645263261335,0,3.394e-05,0.0,0.0029202,999,1312,1 63936U 25098L   25210.48940230  .00003394  00000+0  29202-3 0  9997,2 63936  70.0005 117.0417 0003053 269.1007  90.9803 14.98338520 13127,important
STARLINK-34035,celestrak_active,2025-07-29T17:08:40.721544,63937,U,2025,98,M,2025,210.45186258,70.0004,117.3166,0.0002721,268.4699,91.6148,14.98334945,96.10668194086603,0,2.152e-05,0.0,0.0018807000000000001,999,1311,1 63937U 25098M   25210.45186258  .00002152  00000+0  18807-3 0  9997,2 63937  70.0004 117.3166 0002721 268.4699  91.6148 14.98334945 13117,important
STARLINK-33988,celestrak_active,2025-07-29T17:08:40.721549,63938,U,2025,98,N,2025,210.19762605,70.0004,118.0358,0.0002128,268.0876,92.0039,14.99147344,96.05460102125892,0,3.774e-05,0.0,0.0031722,999,1307,1 63938U 25098N   25210.19762605  .00003774  00000+0  31722-3 0  9997,2 63938  70.0004 118.0358 0002128 268.0876  92.0039 14.99147344 13078,important
STARLINK-34020,celestrak_active,2025-07-29T17:08:40.721555,63939,U,2025,98,P,2025,210.1681265,70.0008,117.9299,0.0002672,266.1126,93.9727,14.98334796,96.1066914980729,0,3.664e-05,0.0,0.0031468,999,1307,1 63939U 25098P   25210.16812650  .00003664  00000+0  31468-3 0  9996,2 63939  70.0008 117.9299 0002672 266.1126  93.9727 14.98334796 13078,important
STARLINK-34021,celestrak_active,2025-07-29T17:08:40.721560,63940,U,2025,98,Q,2025,210.33335648,69.9994,117.8094,0.0002653,275.2618,345.6337,14.98390714,96.10310492087046,0,-0.00031671,0.0,-0.026543999999999998,999,561,1 63940U 25098Q   25210.33335648 -.00031671  00000+0 -26544-2 0  9993,2 63940  69.9994 117.8094 0002653 275.2618 345.6337 14.98390714  5616,important
STARLINK-34004,celestrak_active,2025-07-29T17:08:40.721567,63941,U,2025,98,R,2025,210.17647377,70.0003,117.9566,0.0002531,270.8654,89.2215,14.98337652,96.10650830791509,0,2.504e-05,0.0,0.0021751,999,1307,1 63941U 25098R   25210.17647377  .00002504  00000+0  21751-3 0  9998,2 63941  70.0003 117.9566 0002531 270.8654  89.2215 14.98337652 13079,important
STARLINK-34014,celestrak_active,2025-07-29T17:08:40.721572,63942,U,2025,98,S,2025,210.44752235,70.0002,117.3004,0.0002261,269.5029,90.5871,14.9833845,96.10645712255466,0,2.854e-05,0.0,0.0024684,999,1311,1 63942U 25098S   25210.44752235  .00002854  00000+0  24684-3 0  9995,2 63942  70.0002 117.3004 0002261 269.5029  90.5871 14.98338450 13116,important
STARLINK-33985,celestrak_active,2025-07-29T17:08:40.721577,63943,U,2025,98,T,2025,210.16378317,70.0005,117.9079,0.0003392,270.2266,89.8505,14.98340112,96.10635051863312,0,3.216e-05,0.0,0.0027714,999,1307,1 63943U 25098T   25210.16378317  .00003216  00000+0  27714-3 0  9990,2 63943  70.0005 117.9079 0003392 270.2266  89.8505 14.98340112 13074,important
STARLINK-33996,celestrak_active,2025-07-29T17:08:40.721583,63944,U,2025,98,U,2025,210.46438611,70.0003,117.3594,0.0002224,262.3175,97.7731,14.98333343,96.10678469697514,0,1.738e-05,0.0,0.0015339000000000002,999,1311,1 63944U 25098U   25210.46438611  .00001738  00000+0  15339-3 0  9995,2 63944  70.0003 117.3594 0002224 262.3175  97.7731 14.98333343 13115,important
STARLINK-34036,celestrak_active,2025-07-29T17:08:40.721588,63945,U,2025,98,V,2025,210.4727335,70.0001,117.39,0.0002801,270.7672,89.3166,14.98336525,96.10658059610473,0,2.631e-05,0.0,0.002282,999,1311,1 63945U 25098V   25210.47273350  .00002631  00000+0  22820-3 0  9990,2 63945  70.0001 117.3900 0002801 270.7672  89.3166 14.98336525 13115,important
STARLINK-34039,celestrak_active,2025-07-29T17:08:40.721593,63946,U,2025,98,W,2025,210.13475976,70.0003,118.2157,0.0002876,268.9308,91.1522,14.98337591,96.10651222058274,0,2.824e-05,0.0,0.0024429,999,1306,1 63946U 25098W   25210.13475976  .00002824  00000+0  24429-3 0  9993,2 63946  70.0003 118.2157 0002876 268.9308  91.1522 14.98337591 13064,important
STARLINK-34034,celestrak_active,2025-07-29T17:08:40.721599,63947,U,2025,98,X,2025,210.13457543,69.9989,118.2144,0.0003718,289.5667,70.5091,14.98441133,96.09987127869374,0,-0.00093251,0.0,-0.078885,999,1306,1 63947U 25098X   25210.13457543 -.00093251  00000+0 -78885-2 0  9994,2 63947  69.9989 118.2144 0003718 289.5667  70.5091 14.98441133 13064,important
STARLINK-33983,celestrak_active,2025-07-29T17:08:40.721604,63948,U,2025,98,Y,2025,210.44769252,70.0004,117.3006,0.000303,266.905,93.1762,14.98340939,96.10629747332827,0,6.534e-05,0.0,0.0055471,999,1311,1 63948U 25098Y   25210.44769252  .00006534  00000+0  55471-3 0  9995,2 63948  70.0004 117.3006 0003030 266.9050  93.1762 14.98340939 13119,important
STARLINK-33993,celestrak_active,2025-07-29T17:08:40.721610,63949,U,2025,98,Z,2025,210.15977497,70.0001,117.8945,0.000268,267.1099,92.9753,14.98344536,96.10606675579722,0,1.318e-05,0.0,0.0011819999999999999,999,1307,1 63949U 25098Z   25210.15977497  .00001318  00000+0  11820-3 0  9991,2 63949  70.0001 117.8945 0002680 267.1099  92.9753 14.98344536 13079,important
STARLINK-33962,celestrak_active,2025-07-29T17:08:40.721616,63950,U,2025,98,AA,2025,210.16796286,70.0004,117.9276,0.0003019,259.0973,100.9847,14.98341009,96.10629298340189,0,6.12e-05,0.0,0.0052008,999,1307,1 63950U 25098AA  25210.16796286  .00006120  00000+0  52008-3 0  9998,2 63950  70.0004 117.9276 0003019 259.0973 100.9847 14.98341009 13076,important
STARLINK-33998,celestrak_active,2025-07-29T17:08:40.721621,63951,U,2025,98,AB,2025,210.58335648,69.9999,116.9068,0.0002301,268.1625,149.3584,14.98305402,96.10857693483774,0,0.00070974,0.0,0.058998999999999996,999,591,1 63951U 25098AB  25210.58335648  .00070974  00000+0  58999-2 0  9998,2 63951  69.9999 116.9068 0002301 268.1625 149.3584 14.98305402  5919,important
STARLINK-34159,celestrak_active,2025-07-29T17:08:40.721628,63952,U,2025,99,A,2025,210.46479397,43.0029,357.1653,0.0001352,265.4458,94.6239,15.27579458,94.26678216040793,0,0.00022448,0.0,0.0082278,999,1318,1 63952U 25099A   25210.46479397  .00022448  00000+0  82278-3 0  9998,2 63952  43.0029 357.1653 0001352 265.4458  94.6239 15.27579458 13189,important
STARLINK-34137,celestrak_active,2025-07-29T17:08:40.721634,63953,U,2025,99,B,2025,210.44680405,42.9984,357.0291,7.39e-05,280.0862,79.9906,15.27590514,94.26609990064392,0,0.00022045,0.0,0.008079800000000002,999,1319,1 63953U 25099B   25210.44680405  .00022045  00000+0  80798-3 0  9999,2 63953  42.9984 357.0291 0000739 280.0862  79.9906 15.27590514 13199,important
STARLINK-33974,celestrak_active,2025-07-29T17:08:40.721640,63954,U,2025,99,C,2025,210.40711958,43.0001,357.5921,4.38e-05,269.2039,90.8763,15.27595334,94.26580246414919,0,0.00033747,0.0,0.012297,999,1318,1 63954U 25099C   25210.40711958  .00033747  00000+0  12297-2 0  9993,2 63954  43.0001 357.5921 0000438 269.2039  90.8763 15.27595334 13185,important
STARLINK-34170,celestrak_active,2025-07-29T17:08:40.721645,63955,U,2025,99,D,2025,210.46865219,43.0041,357.1955,0.0001808,275.5132,84.5513,15.27563935,94.26774009298667,0,0.00026026,0.0,0.0095241,999,1318,1 63955U 25099D   25210.46865219  .00026026  00000+0  95241-3 0  9993,2 63955  43.0041 357.1955 0001808 275.5132  84.5513 15.27563935 13184,important
STARLINK-34187,celestrak_active,2025-07-29T17:08:40.721651,63956,U,2025,99,E,2025,210.46222089,43.0022,357.1453,0.0001038,234.5487,125.5268,15.2759619,94.26574964159867,0,0.00021482,0.0,0.0078752,999,1319,1 63956U 25099E   25210.46222089  .00021482  00000+0  78752-3 0  9995,2 63956  43.0022 357.1453 0001038 234.5487 125.5268 15.27596190 13193,important
STARLINK-34142,celestrak_active,2025-07-29T17:08:40.721656,63957,U,2025,99,F,2025,210.4583699,42.9991,357.1177,2.64e-05,330.2366,29.8471,15.2760216,94.26538124298017,0,0.00025258,0.0,0.0092362,999,1319,1 63957U 25099F   25210.45836990  .00025258  00000+0  92362-3 0  9995,2 63957  42.9991 357.1177 0000264 330.2366  29.8471 15.27602160 13197,important
STARLINK-34144,celestrak_active,2025-07-29T17:08:40.721663,63958,U,2025,99,G,2025,210.38914119,42.9957,357.4602,0.000169,70.709,289.3944,15.27593464,94.2659178594129,0,0.00040061,0.0,0.014568000000000001,999,1318,1 63958U 25099G   25210.38914119  .00040061  00000+0  14568-2 0  9998,2 63958  42.9957 357.4602 0001690  70.7090 289.3944 15.27593464 13183,important
STARLINK-34099,celestrak_active,2025-07-29T17:08:40.721668,63959,U,2025,99,H,2025,210.46607854,43.001,357.1738,0.0001428,254.0017,106.0677,15.27586938,94.26632057258401,0,0.00022373,0.0,0.0081989,999,1319,1 63959U 25099H   25210.46607854  .00022373  00000+0  81989-3 0  9991,2 63959  43.0010 357.1738 0001428 254.0017 106.0677 15.27586938 13195,important
STARLINK-34107,celestrak_active,2025-07-29T17:08:40.721674,63960,U,2025,99,J,2025,210.12371864,43.0015,358.9022,0.0001295,286.8932,73.1778,15.2761002,94.26489622004443,0,0.00031967,0.0,0.011651,999,1314,1 63960U 25099J   25210.12371864  .00031967  00000+0  11651-2 0  9992,2 63960  43.0015 358.9022 0001295 286.8932  73.1778 15.27610020 13149,important
STARLINK-34121,celestrak_active,2025-07-29T17:08:40.721679,63961,U,2025,99,K,2025,210.11730367,42.9993,358.8539,0.0001466,281.5129,78.5558,15.27582791,94.26657648174566,0,0.0002817,0.0,0.010291999999999999,999,1314,1 63961U 25099K   25210.11730367  .00028170  00000+0  10292-2 0  9991,2 63961  42.9993 358.8539 0001466 281.5129  78.5558 15.27582791 13143,important
